IRIDIUM 155             
1 43573U 18061E   22250.13633293  .00000126  00000+0  37919-4 0  9990
2 43573  86.3915 272.9753 0002233  99.7552 260.3896 14.34217264215699
IRIDIUM 154             
1 43574U 18061F   22250.11730553  .00000131  00000+0  39746-4 0  9992
2 43574  86.3919 273.0505 0002136  84.8780 275.2659 14.34216714215748
IRIDIUM 163             
1 43575U 18061G   22250.44711186  .00000111  00000+0  32658-4 0  9993
2 43575  86.3916 272.8702 0002589  87.4067 272.7425 14.34217111215768
IRIDIUM 156             
1 43576U 18061H   22250.42173552  .00000092  00000+0  25888-4 0  9996
2 43576  86.3918 272.8863 0002545  95.3036 264.8450 14.34215307215759
IRIDIUM 164             
1 43577U 18061J   22250.47248719  .00000124  00000+0  37165-4 0  9997
2 43577  86.3918 272.8844 0002268  84.4348 275.7106 14.34218523215804
IRIDIUM 159             
1 43578U 18061K   22250.44076376  .00000113  00000+0  33352-4 0  9995
2 43578  86.3916 272.8634 0002192  86.1876 273.9570 14.34215771215763
IRIDIUM 180             
1 43922U 19002A   22250.44026974  .00000187  00000+0  59766-4 0  9991
2 43922  86.4008 209.7483 0002340  71.3854 288.7596 14.34218152191375
IRIDIUM 176             
1 43923U 19002B   22250.43400919  .00000630  00000+0  96045-4 0  9990
2 43923  86.6142 209.7874 0002426  86.3139 273.8356 14.72252783196394
IRIDIUM 168             
1 43924U 19002C   22250.43391926  .00000187  00000+0  59791-4 0  9992
2 43924  86.4010 209.7892 0002145  79.5643 280.5795 14.34215435191353
IRIDIUM 173             
1 43925U 19002D   22250.42123530  .00000190  00000+0  60771-4 0  9990
2 43925  86.4007 209.7398 0002238  79.2990 280.8457 14.34221399191338
IRIDIUM 169             
1 43926U 19002E   22250.44828558  .00000133  00000+0  36871-4 0  9996
2 43926  86.4199 241.3035 0004043 172.5459 187.5801 14.38606275192009
IRIDIUM 172             
1 43927U 19002F   22250.41489882  .00000189  00000+0  60281-4 0  9990
2 43927  86.4007 209.7462 0002237  77.5531 282.5915 14.34218122191342
IRIDIUM 175             
1 43928U 19002G   22250.42783874  .00000622  00000+0  94714-4 0  9990
2 43928  86.6146 209.6228 0002318  84.8509 275.2973 14.72257083196387
IRIDIUM 171             
1 43929U 19002H   22250.39586893  .00000186  00000+0  59243-4 0  9992
2 43929  86.4016 209.9071 0002125  79.2989 280.8446 14.34217029191338
IRIDIUM 170             
1 43930U 19002J   22250.37223117  .00000630  00000+0  95938-4 0  9994
2 43930  86.6142 209.8185 0002383  89.5646 270.5844 14.72253983196397
IRIDIUM 167             
1 43931U 19002K   22250.38953114  .00000194  00000+0  62042-4 0  9998
2 43931  86.4008 209.7669 0002236  75.0268 285.1175 14.34217942191331
